start=new Date('2022-08-06T00:00:00.000Z').valueOf();
sats=[{"MEAN_ELEMENT_THEORY":"SGP4","MEAN_ANOMALY":"287.8479","ECCENTRICITY":"0.00015960","COUNTRY_CODE":"US","OBJECT_TYPE":"PAYLOAD","PERIAPSIS":"546.121","MEAN_MOTION_DOT":"0.00000155","CLASSIFICATION_TYPE":"U","BSTAR":"0.00002931000000","REV_AT_EPOCH":"14259","MEAN_MOTION":"15.06395941","SITE":"AFETR","DECAY_DATE":null,"OBJECT_NAME":"STARLINK-1069","OBJECT_ID":"2020-001AT","PERIOD":"95.592","TLE_LINE2":"2 44955  53.0547  76.6575 0001596  72.2684 287.8479 15.06395941142598","RA_OF_ASC_NODE":"76.6575","MEAN_MOTION_DDOT":"0.0000000000000","APOAPSIS":"548.331","INCLINATION":"53.0547","RCS_SIZE":"LARGE","CENTER_NAME":"EARTH","FILE":"3530042","EPOCH":"2022-08-05T15:15:40.008672","SEMIMAJOR_AXIS":"6925.361","REF_FRAME":"TEME","ELEMENT_SET_NO":"999","ARG_OF_PERICENTER":"72.2684","TIME_SYSTEM":"UTC","LAUNCH_DATE":"2020-01-07","NORAD_CAT_ID":"44955","EPHEMERIS_TYPE":"0","GP_ID":"209655357","TLE_LINE1":"1 44955U 20001AT  22217.63587973  .00000155  00000-0  29310-4 0  9992"},{"OBJECT_ID":"2020-001AU","OBJECT_NAME":"STARLINK-1070","TLE_LINE2":"2 44956  53.0538  75.7715 0001775  90.9640 269.1552 15.06393542142683","PERIOD":"95.593","DECAY_DATE":null,"SITE":"AFETR","MEAN_MOTION":"15.06393542","REV_AT_EPOCH":"14268","BSTAR":"-0.00011545000000","CLASSIFICATION_TYPE":"U","MEAN_MOTION_DOT":"-0.00002001","OBJECT_TYPE":"PAYLOAD","PERIAPSIS":"546.004","ECCENTRICITY":"0.00017750","COUNTRY_CODE":"US","MEAN_ELEMENT_THEORY":"SGP4","MEAN_ANOMALY":"269.1552","TLE_LINE1":"1 44956U 20001AU  22217.83029099 -.00002001  00000-0 -11545-3 0  9999","GP_ID":"209654115","EPHEMERIS_TYPE":"0","LAUNCH_DATE":"2020-01-07","NORAD_CAT_ID":"44956","TIME_SYSTEM":"UTC","ARG_OF_PERICENTER":"90.9640","ELEMENT_SET_NO":"999","REF_FRAME":"TEME","SEMIMAJOR_AXIS":"6925.368","EPOCH":"2022-08-05T19:55:37.141536","RCS_SIZE":"LARGE","FILE":"3530042","CENTER_NAME":"EARTH","MEAN_MOTION_DDOT":"0.0000000000000","RA_OF_ASC_NODE":"75.7715","INCLINATION":"53.0538","APOAPSIS":"548.463"},{"ARG_OF_PERICENTER":"86.3055","ELEMENT_SET_NO":"999","EPHEMERIS_TYPE":"0","GP_ID":"209653866","TLE_LINE1":"1 44957U 20001AV  22217.72339651  .00001083  00000-0  91624-4 0  9990","TIME_SYSTEM":"UTC","LAUNCH_DATE":"2020-01-07","NORAD_CAT_ID":"44957","RCS_SIZE":"LARGE","FILE":"3530042","CENTER_NAME":"EARTH","RA_OF_ASC_NODE":"76.2494","MEAN_MOTION_DDOT":"0.0000000000000","APOAPSIS":"548.285","INCLINATION":"53.0535","REF_FRAME":"TEME","EPOCH":"2022-08-05T17:21:41.458464","SEMIMAJOR_AXIS":"6925.354","REV_AT_EPOCH":"14266","MEAN_MOTION":"15.06398256","CLASSIFICATION_TYPE":"U","BSTAR":"0.00009162400000","OBJECT_NAME":"STARLINK-1074","OBJECT_ID":"2020-001AV","PERIOD":"95.592","TLE_LINE2":"2 44957  53.0535  76.2494 0001539  86.3055 273.8110 15.06398256142665","SITE":"AFETR","DECAY_DATE":null,"OBJECT_TYPE":"PAYLOAD","PERIAPSIS":"546.153","MEAN_ELEMENT_THEORY":"SGP4","MEAN_ANOMALY":"273.8110","COUNTRY_CODE":"US","ECCENTRICITY":"0.00015390","MEAN_MOTION_DOT":"0.00001083"},{"SITE":"AFETR","DECAY_DATE":null,"PERIOD":"95.592","TLE_LINE2":"2 44959  53.0544  75.5921 0001877  69.7752 290.3439 15.06402669142682","OBJECT_ID":"2020-001AX","OBJECT_NAME":"STARLINK-1076","CLASSIFICATION_TYPE":"U","BSTAR":"0.00021064000000","MEAN_MOTION":"15.06402669","REV_AT_EPOCH":"14268","MEAN_MOTION_DOT":"0.00002857","MEAN_ANOMALY":"290.3439","MEAN_ELEMENT_THEORY":"SGP4","COUNTRY_CODE":"US","ECCENTRICITY":"0.00018770","PERIAPSIS":"545.905","OBJECT_TYPE":"PAYLOAD","TIME_SYSTEM":"UTC","LAUNCH_DATE":"2020-01-07","NORAD_CAT_ID":"44959","EPHEMERIS_TYPE":"0","TLE_LINE1":"1 44959U 20001AX  22217.87177850  .00002857  00000-0  21064-3 0  9999","GP_ID":"209655116","ELEMENT_SET_NO":"999","ARG_OF_PERICENTER":"69.7752","EPOCH":"2022-08-05T20:55:21.662400","SEMIMAJOR_AXIS":"6925.340","REF_FRAME":"TEME","APOAPSIS":"548.505","INCLINATION":"53.0544","RA_OF_ASC_NODE":"75.5921","MEAN_MOTION_DDOT":"0.0000000000000","CENTER_NAME":"EARTH","FILE":"3530042","RCS_SIZE":"LARGE"},{"OBJECT_TYPE":"PAYLOAD","PERIAPSIS":"546.200","ECCENTRICITY":"0.00014210","COUNTRY_CODE":"US","MEAN_ANOMALY":"266.4042","MEAN_ELEMENT_THEORY":"SGP4","MEAN_MOTION_DOT":"0.00001686","MEAN_MOTION":"15.06409724","REV_AT_EPOCH":"14269","BSTAR":"0.00013199000000","CLASSIFICATION_TYPE":"U","OBJECT_NAME":"STARLINK-1080","OBJECT_ID":"2020-001AZ","TLE_LINE2":"2 44961  53.0536  75.5746 0001421  93.7109 266.4042 15.06409724142693","PERIOD":"95.592","SITE":"AFETR","DECAY_DATE":null,"RCS_SIZE":"LARGE","FILE":"3530042","CENTER_NAME":"EARTH","RA_OF_ASC_NODE":"75.5746","MEAN_MOTION_DDOT":"0.0000000000000","INCLINATION":"53.0536","APOAPSIS":"548.168","REF_FRAME":"TEME","SEMIMAJOR_AXIS":"6925.319","EPOCH":"2022-08-05T21:05:58.568640","ARG_OF_PERICENTER":"93.7109","ELEMENT_SET_NO":"999","GP_ID":"209654858","TLE_LINE1":"1 44961U 20001AZ  22217.87915010  .00001686  00000-0  13199-3 0  9999","EPHEMERIS_TYPE":"0","LAUNCH_DATE":"2020-01-07","NORAD_CAT_ID":"44961","TIME_SYSTEM":"UTC"},{"TIME_SYSTEM":"UTC","NORAD_CAT_ID":"44963","LAUNCH_DATE":"2020-01-07","EPHEMERIS_TYPE":"0","GP_ID":"209653618","TLE_LINE1":"1 44963U 20001BB  22217.82021466  .00012388  00000-0  63348-3 0  9991","ELEMENT_SET_NO":"999","ARG_OF_PERICENTER":"109.4515","EPOCH":"2022-08-05T19:41:06.546624","SEMIMAJOR_AXIS":"6892.976","REF_FRAME":"TEME","APOAPSIS":"516.081","INCLINATION":"52.9950","RA_OF_ASC_NODE":"59.7745","MEAN_MOTION_DDOT":"0.0000000000000","FILE":"3530042","CENTER_NAME":"EARTH","RCS_SIZE":"LARGE","SITE":"AFETR","DECAY_DATE":null,"PERIOD":"94.923","TLE_LINE2":"2 44963  52.9950  59.7745 0001799 109.4515 250.6672 15.17024490143601","OBJECT_ID":"2020-001BB","OBJECT_NAME":"STARLINK-1085","CLASSIFICATION_TYPE":"U","BSTAR":"0.00063348000000","MEAN_MOTION":"15.17024490","REV_AT_EPOCH":"14360","MEAN_MOTION_DOT":"0.00012388","MEAN_ANOMALY":"250.6672","MEAN_ELEMENT_THEORY":"SGP4","ECCENTRICITY":"0.00017990","COUNTRY_CODE":"US","PERIAPSIS":"513.601","OBJECT_TYPE":"PAYLOAD"},{"ARG_OF_PERICENTER":"87.6993","ELEMENT_SET_NO":"999","GP_ID":"209654365","TLE_LINE1":"1 44964U 20001BC  22217.64324668  .00000489  00000-0  51732-4 0  9996","EPHEMERIS_TYPE":"0","LAUNCH_DATE":"2020-01-07","NORAD_CAT_ID":"44964","TIME_SYSTEM":"UTC","CENTER_NAME":"EARTH","FILE":"3530042","RCS_SIZE":"LARGE","INCLINATION":"53.0546","APOAPSIS":"548.214","MEAN_MOTION_DDOT":"0.0000000000000","RA_OF_ASC_NODE":"76.6154","REF_FRAME":"TEME","SEMIMAJOR_AXIS":"6925.344","EPOCH":"2022-08-05T15:26:16.513152","MEAN_MOTION":"15.06401510","REV_AT_EPOCH":"14265","BSTAR":"0.00005173200000","CLASSIFICATION_TYPE":"U","TLE_LINE2":"2 44964  53.0546  76.6154 0001452  87.6993 272.4162 15.06401510142650","PERIOD":"95.592","OBJECT_ID":"2020-001BC","OBJECT_NAME":"STARLINK-1086","DECAY_DATE":null,"SITE":"AFETR","PERIAPSIS":"546.203","OBJECT_TYPE":"PAYLOAD","ECCENTRICITY":"0.00014520","COUNTRY_CODE":"US","MEAN_ANOMALY":"272.4162","MEAN_ELEMENT_THEORY":"SGP4","MEAN_MOTION_DOT":"0.00000489"},{"MEAN_MOTION_DOT":"0.00000508","ECCENTRICITY":"0.00014340","COUNTRY_CODE":"US","MEAN_ANOMALY":"273.4592","MEAN_ELEMENT_THEORY":"SGP4","PERIAPSIS":"546.208","OBJECT_TYPE":"PAYLOAD","SITE":"AFETR","DECAY_DATE":null,"TLE_LINE2":"2 44966  53.0561  75.6467 0001434  86.6561 273.4592 15.06403975142683","PERIOD":"95.592","OBJECT_NAME":"STARLINK-1088","OBJECT_ID":"2020-001BE","BSTAR":"0.00005301700000","CLASSIFICATION_TYPE":"U","REV_AT_EPOCH":"14268","MEAN_MOTION":"15.06403975","SEMIMAJOR_AXIS":"6925.336","EPOCH":"2022-08-05T20:44:44.281824","REF_FRAME":"TEME","INCLINATION":"53.0561","APOAPSIS":"548.194","MEAN_MOTION_DDOT":"0.0000000000000","RA_OF_ASC_NODE":"75.6467","FILE":"3530042","CENTER_NAME":"EARTH","RCS_SIZE":"LARGE","NORAD_CAT_ID":"44966","LAUNCH_DATE":"2020-01-07","TIME_SYSTEM":"UTC","TLE_LINE1":"1 44966U 20001BE  22217.86440141  .00000508  00000-0  53017-4 0  9997","GP_ID":"209654617","EPHEMERIS_TYPE":"0","ELEMENT_SET_NO":"999","ARG_OF_PERICENTER":"86.6561"},{"GP_ID":"209655358","TLE_LINE1":"1 44967U 20001BF  22217.75381963  .00000313  00000-0  39882-4 0  9990","EPHEMERIS_TYPE":"0","LAUNCH_DATE":"2020-01-07","NORAD_CAT_ID":"44967","TIME_SYSTEM":"UTC","ARG_OF_PERICENTER":"78.3100","ELEMENT_SET_NO":"999","REF_FRAME":"TEME","SEMIMAJOR_AXIS":"6925.328","EPOCH":"2022-08-05T18:05:30.016032","FILE":"3530042","CENTER_NAME":"EARTH","RCS_SIZE":"LARGE","INCLINATION":"53.0537","APOAPSIS":"548.261","MEAN_MOTION_DDOT":"0.0000000000000","RA_OF_ASC_NODE":"76.1260","TLE_LINE2":"2 44967  53.0537  76.1260 0001542  78.3100 281.8062 15.06406777142678","PERIOD":"95.592","OBJECT_NAME":"STARLINK-1089","OBJECT_ID":"2020-001BF","DECAY_DATE":null,"SITE":"AFETR","REV_AT_EPOCH":"14267","MEAN_MOTION":"15.06406777","BSTAR":"0.00003988200000","CLASSIFICATION_TYPE":"U","MEAN_MOTION_DOT":"0.00000313","PERIAPSIS":"546.125","OBJECT_TYPE":"PAYLOAD","COUNTRY_CODE":"US","ECCENTRICITY":"0.00015420","MEAN_ANOMALY":"281.8062","MEAN_ELEMENT_THEORY":"SGP4"},{"MEAN_MOTION_DOT":"0.00000809","OBJECT_TYPE":"PAYLOAD","PERIAPSIS":"546.135","COUNTRY_CODE":"US","ECCENTRICITY":"0.00015580","MEAN_ELEMENT_THEORY":"SGP4","MEAN_ANOMALY":"270.5814","OBJECT_NAME":"STARLINK-1090","OBJECT_ID":"2020-001BG","TLE_LINE2":"2 44968  53.0540  75.5527 0001558  89.5354 270.5814 15.06399890142693","PERIOD":"95.592","SITE":"AFETR","DECAY_DATE":null,"REV_AT_EPOCH":"14269","MEAN_MOTION":"15.06399890","BSTAR":"0.00007317800000","CLASSIFICATION_TYPE":"U","REF_FRAME":"TEME","SEMIMAJOR_AXIS":"6925.349","EPOCH":"2022-08-05T21:11:16.573344","RCS_SIZE":"LARGE","CENTER_NAME":"EARTH","FILE":"3530042","MEAN_MOTION_DDOT":"0.0000000000000","RA_OF_ASC_NODE":"75.5527","INCLINATION":"53.0540","APOAPSIS":"548.293","TLE_LINE1":"1 44968U 20001BG  22217.88283071  .00000809  00000-0  73178-4 0  9992","GP_ID":"209654116","EPHEMERIS_TYPE":"0","LAUNCH_DATE":"2020-01-07","NORAD_CAT_ID":"44968","TIME_SYSTEM":"UTC","ARG_OF_PERICENTER":"89.5354","ELEMENT_SET_NO":"999"}];
